[
    {
        "Altitude(m)": 703452.8701105037,
        "Argument of Periapsis(deg)": 0.0,
        "Eccentricity": 0.0,
        "Inclination(deg)": 45.0,
        "Latitude(deg)": -0.06089063484682645,
        "Longitude(deg)": -149.9087569121772,
        "Mean Anomaly(deg)": 180.0,
        "RAAN(deg)": 130.0,
        "Satellite Name": "Constellation 1 583",
        "Satellite Number": 583,
        "Semi-Major Axis(m)": 7083131.272910544,
        "Time(s)": 0
    },
    {
        "Altitude(m)": 703458.5156507615,
        "Argument of Periapsis(deg)": 5.994800624540561e-05,
        "Eccentricity": 0.0,
        "Inclination(deg)": 45.0,
        "Latitude(deg)": -0.10410617345998638,
        "Longitude(deg)": -149.87000827491352,
        "Mean Anomaly(deg)": 180.0607011402499,
        "RAAN(deg)": 129.99994341083445,
        "Satellite Name": "Constellation 1 583",
        "Satellite Number": 583,
        "Semi-Major Axis(m)": 7083131.272910544,
        "Time(s)": 1
    },
    {
        "Altitude(m)": 703464.1818151855,
        "Argument of Periapsis(deg)": 0.00011989601249081122,
        "Eccentricity": 0.0,
        "Inclination(deg)": 45.0,
        "Latitude(deg)": -0.14732158316171595,
        "Longitude(deg)": -149.83125958936964,
        "Mean Anomaly(deg)": 180.12140228049978,
        "RAAN(deg)": 129.99988682166884,
        "Satellite Name": "Constellation 1 583",
        "Satellite Number": 583,
        "Semi-Major Axis(m)": 7083131.272910544,
        "Time(s)": 2
    },
    {
        "Altitude(m)": 703469.8685971122,
        "Argument of Periapsis(deg)": 0.00017984401873621686,
        "Eccentricity": 0.0,
        "Inclination(deg)": 45.0,
        "Latitude(deg)": -0.19053683901677604,
        "Longitude(deg)": -149.79251080724842,
        "Mean Anomaly(deg)": 180.18210342074968,
        "RAAN(deg)": 129.99983023250329,
        "Satellite Name": "Constellation 1 583",
        "Satellite Number": 583,
        "Semi-Major Axis(m)": 7083131.272910544,
        "Time(s)": 3
    },
    {
        "Altitude(m)": 703475.5759897644,
        "Argument of Periapsis(deg)": 0.00023979202498162244,
        "Eccentricity": 0.0,
        "Inclination(deg)": 45.0,
        "Latitude(deg)": -0.23375191608975268,
        "Longitude(deg)": -149.75376188025288,
        "Mean Anomaly(deg)": 180.24280456099962,
        "RAAN(deg)": 129.99977364333773,
        "Satellite Name": "Constellation 1 583",
        "Satellite Number": 583,
        "Semi-Major Axis(m)": 7083131.272910544,
        "Time(s)": 4
    },
    {
        "Altitude(m)": 703481.3039862749,
        "Argument of Periapsis(deg)": 0.00029974003122702807,
        "Eccentricity": 0.0,
        "Inclination(deg)": 45.0,
        "Latitude(deg)": -0.2769667894452386,
        "Longitude(deg)": -149.7150127600859,
        "Mean Anomaly(deg)": 180.30350570124943,
        "RAAN(deg)": 129.99971705417215,
        "Satellite Name": "Constellation 1 583",
        "Satellite Number": 583,
        "Semi-Major Axis(m)": 7083131.272910544,
        "Time(s)": 5
    },
    {
        "Altitude(m)": 703487.0525797014,
        "Argument of Periapsis(deg)": 0.00035968803747243373,
        "Eccentricity": 0.0,
        "Inclination(deg)": 45.0,
        "Latitude(deg)": -0.3201814341477056,
        "Longitude(deg)": -149.67626339845006,
        "Mean Anomaly(deg)": 180.36420684149942,
        "RAAN(deg)": 129.9996604650066,
        "Satellite Name": "Constellation 1 583",
        "Satellite Number": 583,
        "Semi-Major Axis(m)": 7083131.272910544,
        "Time(s)": 6
    },
    {
        "Altitude(m)": 703492.8217629831,
        "Argument of Periapsis(deg)": 0.00041963604371783933,
        "Eccentricity": 0.0,
        "Inclination(deg)": 45.0,
        "Latitude(deg)": -0.36339582526089503,
        "Longitude(deg)": -149.63751391514484,
        "Mean Anomaly(deg)": 180.4249079817493,
        "RAAN(deg)": 129.999603875841,
        "Satellite Name": "Constellation 1 583",
        "Satellite Number": 583,
        "Semi-Major Axis(m)": 7083131.272910544,
        "Time(s)": 7
    },
    {
        "Altitude(m)": 703498.6115289798,
        "Argument of Periapsis(deg)": 0.0004795840499632449,
        "Eccentricity": 0.0,
        "Inclination(deg)": 45.0,
        "Latitude(deg)": -0.40660993784930294,
        "Longitude(deg)": -149.59876392567799,
        "Mean Anomaly(deg)": 180.48560912199923,
        "RAAN(deg)": 129.99954728667544,
        "Satellite Name": "Constellation 1 583",
        "Satellite Number": 583,
        "Semi-Major Axis(m)": 7083131.272910544,
        "Time(s)": 8
    },
    {
        "Altitude(m)": 703504.4218704525,
        "Argument of Periapsis(deg)": 0.0005395320562086505,
        "Eccentricity": 0.0,
        "Inclination(deg)": 45.0,
        "Latitude(deg)": -0.4498237469758158,
        "Longitude(deg)": -149.5600135498481,
        "Mean Anomaly(deg)": 180.54631026224908,
        "RAAN(deg)": 129.99949069750988,
        "Satellite Name": "Constellation 1 583",
        "Satellite Number": 583,
        "Semi-Major Axis(m)": 7083131.272910544,
        "Time(s)": 9
    },
    {
        "Altitude(m)": 703510.252780076,
        "Argument of Periapsis(deg)": 0.0005994800624540561,
        "Eccentricity": 0.0,
        "Inclination(deg)": 45.0,
        "Latitude(deg)": -0.4930372277033415,
        "Longitude(deg)": -149.52126273935588,
        "Mean Anomaly(deg)": 180.60701140249896,
        "RAAN(deg)": 129.9994341083443,
        "Satellite Name": "Constellation 1 583",
        "Satellite Number": 583,
        "Semi-Major Axis(m)": 7083131.272910544,
        "Time(s)": 10
    },
    {
        "Altitude(m)": 703516.1042504213,
        "Argument of Periapsis(deg)": 0.0006594280686994618,
        "Eccentricity": 0.0,
        "Inclination(deg)": 45.0,
        "Latitude(deg)": -0.5362503550941097,
        "Longitude(deg)": -149.48251144590114,
        "Mean Anomaly(deg)": 180.6677125427489,
        "RAAN(deg)": 129.99937751917875,
        "Satellite Name": "Constellation 1 583",
        "Satellite Number": 583,
        "Semi-Major Axis(m)": 7083131.272910544,
        "Time(s)": 11
    },
    {
        "Altitude(m)": 703521.9762739751,
        "Argument of Periapsis(deg)": 0.0007193760749448675,
        "Eccentricity": 0.0,
        "Inclination(deg)": 45.0,
        "Latitude(deg)": -0.5794631042094865,
        "Longitude(deg)": -149.4437596211833,
        "Mean Anomaly(deg)": 180.72841368299876,
        "RAAN(deg)": 129.99932093001317,
        "Satellite Name": "Constellation 1 583",
        "Satellite Number": 583,
        "Semi-Major Axis(m)": 7083131.272910544,
        "Time(s)": 12
    },
    {
        "Altitude(m)": 703527.8688431175,
        "Argument of Periapsis(deg)": 0.000779324081190273,
        "Eccentricity": 0.0,
        "Inclination(deg)": 45.0,
        "Latitude(deg)": -0.6226754501101794,
        "Longitude(deg)": -149.4050072169004,
        "Mean Anomaly(deg)": 180.78911482324872,
        "RAAN(deg)": 129.9992643408476,
        "Satellite Name": "Constellation 1 583",
        "Satellite Number": 583,
        "Semi-Major Axis(m)": 7083131.272910544,
        "Time(s)": 13
    },
    {
        "Altitude(m)": 703533.781950155,
        "Argument of Periapsis(deg)": 0.0008392720874356787,
        "Eccentricity": 0.0,
        "Inclination(deg)": 45.0,
        "Latitude(deg)": -0.6658873678558341,
        "Longitude(deg)": -149.36625418474978,
        "Mean Anomaly(deg)": 180.84981596349857,
        "RAAN(deg)": 129.99920775168204,
        "Satellite Name": "Constellation 1 583",
        "Satellite Number": 583,
        "Semi-Major Axis(m)": 7083131.272910544,
        "Time(s)": 14
    },
    {
        "Altitude(m)": 703539.7155872837,
        "Argument of Periapsis(deg)": 0.0008992200936810842,
        "Eccentricity": 0.0,
        "Inclination(deg)": 45.0,
        "Latitude(deg)": -0.7090988325050259,
        "Longitude(deg)": -149.32750064452426,
        "Mean Anomaly(deg)": 180.91051710374848,
        "RAAN(deg)": 129.99915116251645,
        "Satellite Name": "Constellation 1 583",
        "Satellite Number": 583,
        "Semi-Major Axis(m)": 7083131.272910544,
        "Time(s)": 15
    },
    {
        "Altitude(m)": 703545.669746612,
        "Argument of Periapsis(deg)": 0.0009591680999264898,
        "Eccentricity": 0.0,
        "Inclination(deg)": 45.0,
        "Latitude(deg)": -0.7523098191160712,
        "Longitude(deg)": -149.28874621172437,
        "Mean Anomaly(deg)": 180.9712182439984,
        "RAAN(deg)": 129.9990945733509,
        "Satellite Name": "Constellation 1 583",
        "Satellite Number": 583,
        "Semi-Major Axis(m)": 7083131.272910544,
        "Time(s)": 16
    },
    {
        "Altitude(m)": 703551.6444201596,
        "Argument of Periapsis(deg)": 0.0010191161061718953,
        "Eccentricity": 0.0,
        "Inclination(deg)": 45.0,
        "Latitude(deg)": -0.79552030274501,
        "Longitude(deg)": -149.24999100614065,
        "Mean Anomaly(deg)": 181.03191938424828,
        "RAAN(deg)": 129.99903798418532,
        "Satellite Name": "Constellation 1 583",
        "Satellite Number": 583,
        "Semi-Major Axis(m)": 7083131.272910544,
        "Time(s)": 17
    },
    {
        "Altitude(m)": 703557.6395998442,
        "Argument of Periapsis(deg)": 0.001079064112417301,
        "Eccentricity": 0.0,
        "Inclination(deg)": 45.0,
        "Latitude(deg)": -0.8387302584472534,
        "Longitude(deg)": -149.21123497946462,
        "Mean Anomaly(deg)": 181.0926205244982,
        "RAAN(deg)": 129.99898139501977,
        "Satellite Name": "Constellation 1 583",
        "Satellite Number": 583,
        "Semi-Major Axis(m)": 7083131.272910544,
        "Time(s)": 18
    }
]